GLOBALSTAR M024         
1 25883U 99043A   24275.62920907 -.00000141  00000+0 -26883-2 0  9992
2 25883  51.9998 244.0181 0001842  29.0303 142.1213 11.10162047 86147
GLOBALSTAR M027         
1 25884U 99043B   24275.53972859  .00000035  00000+0  37376-2 0  9995
2 25884  52.0232 314.8774 0020974 293.6300  66.2292 11.04370077112665
GLOBALSTAR M054         
1 25885U 99043C   24275.90998312 -.00000157  00000+0 -21908-2 0  9990
2 25885  52.0113 124.6902 0006686  95.2463   8.6969 11.39204728 89610
GLOBALSTAR M053         
1 25886U 99043D   24275.88428185 -.00000076  00000+0 -21291-3 0  9990
2 25886  51.9990  57.5125 0003435  18.1220 146.5965 11.27658967 90308
GLOBALSTAR M058         
1 25907U 99049A   24275.79220322 -.00000042  00000+0  56540-3 0  9990
2 25907  51.9932  79.1488 0002660 124.2153 235.8934 11.93183706510697
GLOBALSTAR M050         
1 25908U 99049B   24275.86402797  .00000018  00000+0  11967-2 0  9992
2 25908  51.9970 105.9325 0008227 234.1772 230.7753 12.07441076116981
GLOBALSTAR M033         
1 25909U 99049C   24275.59770892  .00000065  00000+0  15076-2 0  9994
2 25909  51.9940 356.3623 0013246  93.9692 266.2670 12.20282874504179
GLOBALSTAR M055         
1 25910U 99049D   24275.71976212 -.00000060  00000+0  29605-3 0  9994
2 25910  52.0049  19.3425 0006468 317.8103  42.2250 12.29409961136491
